
STARLINK-32352          
1 61847U 24202C   24362.96550626 -.00003188  00000+0 -69131-4 0  9997
2 61847  42.9986 193.2687 0001231 270.5510  89.5205 15.40681654  9018
STARLINK-32427          
1 61848U 24202D   24362.89840878  .00001801  00000+0  50359-4 0  9991
2 61848  42.9990 193.6210 0001612 265.1319  94.9354 15.40706641  8423
STARLINK-32346          
1 61849U 24202E   24362.89392568 -.00004626  00000+0 -10348-3 0  9993
2 61849  42.9996 193.5873 0001923 263.6096  96.4541 15.40714600  8423
STARLINK-32330          
1 61850U 24202F   24362.82688430 -.00000129  00000+0  41902-5 0  9999
2 61850  43.0028 193.9431 0001877 279.5696  80.4949 15.40674169  8427
STARLINK-32379          
1 61851U 24202G   24362.96100847  .00001400  00000+0  40788-4 0  9998
2 61851  43.0007 193.2330 0001677 263.8932  96.1733 15.40692159  8933
STARLINK-32433          
1 61852U 24202H   24362.82462942 -.00000878  00000+0 -13763-4 0  9994
2 61852  42.9998 193.9268 0002006 270.3002  89.7624 15.40690652  8423
STARLINK-32394          
1 61853U 24202J   24362.82238488  .00008682  00000+0  21497-3 0  9992
2 61853  43.0006 193.9070 0002362 268.9005  91.1581 15.40684060  8412
STARLINK-32486          
1 61854U 24202K   24362.94976084 -.00021725  00000+0 -51246-3 0  9997
2 61854  43.0010 193.1443 0002132 268.6069  91.4543 15.40804727  9018
STARLINK-32391          
1 61855U 24202L   24362.94756237  .00003893  00000+0  10040-3 0  9995
2 61855  42.9996 193.1285 0001712 267.8909  92.1751 15.40701794  9010
STARLINK-32483          
1 61856U 24202M   24361.97289230  .00002738  00000+0  72797-4 0  9997
2 61856  43.0017 198.7105 0002416 272.5883  87.4697 15.40699723  8298
STARLINK-32451          
1 61857U 24202N   24362.87601033  .00000338  00000+0  15343-4 0  9995
2 61857  43.0015 193.4461 0001087 269.3619  90.7113 15.40703667  8437
STARLINK-32556          
1 61858U 24202P   24362.94308715  .00000276  00000+0  13871-4 0  9990
2 61858  43.0011 193.0916 0001694 267.0035  93.0628 15.40693679  8445
STARLINK-32466          
1 61859U 24202Q   24362.93860004 -.00000264  00000+0  94139-6 0  9990
2 61859  43.0009 193.0567 0001288 272.6086  87.4623 15.40702861  8448
STARLINK-32316          
1 61860U 24202R   24362.86705129  .00001666  00000+0  47138-4 0  9991
2 61860  42.9993 193.3773 0001741 256.9696 103.0966 15.40700447  8429
STARLINK-32415          
1 61861U 24202S   24362.86928649  .00001450  00000+0  41965-4 0  9999
2 61861  43.0000 193.3942 0001627 265.1461  94.9209 15.40699545  8428
STARLINK-32393          
1 61862U 24202T   24362.93633610  .00007003  00000+0  17466-3 0  9997
2 61862  43.0003 193.0380 0001645 263.9113  96.1556 15.40717087  8864
STARLINK-32324          
1 61863U 24202U   24362.92963567  .00001319  00000+0  38853-4 0  9992
2 61863  43.0024 192.9859 0002161 280.9527  79.1086 15.40698531  8433
STARLINK-32318          
1 61864U 24202V   24362.86032938  .00001146  00000+0  34685-4 0  9992
2 61864  42.9973 193.3274 0000552 300.1435  59.9366 15.40702951  8435
STARLINK-32401          
1 61865U 24202W   24362.66359892  .00000481  00000+0  18772-4 0  9992
2 61865  43.0008 194.4270 0001448 268.2273  91.8418 15.40707154  8976
STARLINK-32588          
1 61866U 24202X   24362.86256465 -.00007910  00000+0 -18201-3 0  9999
2 61866  43.0009 193.3395 0001853 249.2256 110.8402 15.40742082  8439
STARLINK-32569          
1 61867U 24202Y   24362.85586179 -.00001862  00000+0 -37332-4 0  9994
2 61867  42.9989 193.2884 0002113 265.3286  94.7329 15.40684786  8433
2024-203A               
1 61869U 24203A   24363.09841427  .00017341  00000+0  92777-3 0  9994
2 61869  97.4882  67.1084 0017251  51.2919 308.9853 15.14987118  7401
2024-203B               
1 61870U 24203B   24363.09773036  .00017330  00000+0  92660-3 0  9995
2 61870  97.4867  67.0998 0016888  50.4247 309.8474 15.15014851  7404
2024-203C               
1 61871U 24203C   24363.09088371  .00018081  00000+0  96008-3 0  9991
2 61871  97.4925  67.1461 0017887  56.5073 303.7866 15.15236975  7401
2024-203D               
1 61872U 24203D   24363.15186206  .00017971  00000+0  95010-3 0  9994
2 61872  97.4936  67.2248 0017716  58.4055 301.8904 15.15395012  7411
STARLINK-11402 [DTC]    
1 61874U 24204A   24363.06865977  .00002406  00000+0  24726-4 0  9990
2 61874  53.1599 349.0196 0001647  91.5601 268.5606 15.69705200  8334
STARLINK-11316 [DTC]    
1 61875U 24204B   24362.91667824  .00007419  00000+0  66069-4 0  9990
2 61875  53.1589 349.0689 0001210  91.5154 102.1225 15.69700351  6048
STARLINK-11401 [DTC]    
1 61876U 24204C   24362.68173583  .00001637  00000+0  18371-4 0  9998
2 61876  53.1562 350.8547 0001666  95.1441 264.9767 15.69711998  8271
STARLINK-11321 [DTC]    
1 61877U 24204D   24362.67682358  .00002091  00000+0  22110-4 0  9994
2 61877  53.1572 350.8192 0001214  78.7473 281.3681 15.69715299  8265
STARLINK-11314 [DTC]    
1 61878U 24204E   24363.11761431 -.00000114  00000+0  39239-5 0  9991
2 61878  53.1564 348.5886 0001289  95.7511 264.3654 15.69704091  8343
STARLINK-11324 [DTC]    
1 61879U 24204F   24362.98536221 -.00004255  00000+0 -30264-4 0  9992
2 61879  53.1570 349.1841 0001523 125.8826 234.2334 15.69715390  8327
STARLINK-11328 [DTC]    
1 61880U 24204G   24362.28009372  .00001209  00000+0  14827-4 0  9990
2 61880  53.1561 352.6112 0000732  91.5812 268.5290 15.69714219  8212
STARLINK-11329 [DTC]    
1 61881U 24204H   24362.40252558  .00000354  00000+0  77853-5 0  9990
2 61881  53.1566 351.9503 0001643  96.1619 263.9586 15.69722260  8236
STARLINK-11398 [DTC]    
1 61882U 24204J   24362.27026546  .00002075  00000+0  21959-4 0  9999
2 61882  53.1560 352.5403 0001146  64.0909 296.0227 15.69738705  8219
STARLINK-11383 [DTC]    
1 61883U 24204K   24363.08817744  .00001809  00000+0  19788-4 0  9999
2 61883  53.1551 348.3956 0001095  82.7254 277.3889 15.69708367  8340
STARLINK-11359 [DTC]    
1 61884U 24204L   24362.96574299 -.00000153  00000+0  36030-5 0  9993
2 61884  53.1562 349.0552 0001402  62.1757 297.9402 15.69717627  8321
STARLINK-11301 [DTC]    
1 61885U 24204M   24362.70125147 -.00001417  00000+0 -68329-5 0  9991
2 61885  53.1553 350.2450 0001558  77.9641 282.1552 15.69715795  8282
STARLINK-11351 [DTC]    
1 61886U 24204N   24362.69634302  .00001835  00000+0  19988-4 0  9996
2 61886  53.1558 350.2131 0000346  83.1935 276.9122 15.69715223  8283
STARLINK-32410          
1 61887U 24204P   24362.68997837  .00000560  00000+0  23962-4 0  9992
2 61887  53.1626 357.4233 0001368 111.1797 248.9354 15.39633620  8187
STARLINK-32377          
1 61888U 24204Q   24362.98205145  .00002975  00000+0  84341-4 0  9990
2 61888  53.1630 355.6922 0001341  71.0139 289.1011 15.39612009  8223
STARLINK-32292          
1 61889U 24204R   24362.27727725  .00003965  00000+0  10908-3 0  9993
2 61889  53.1624 359.1137 0001129  66.8512 293.2611 15.39615767  8120
STARLINK-32501          
1 61890U 24204S   24362.91667824  .00066166  00000+0  22290-2 0  9997
2 61890  53.1604 356.0767 0001474  82.2813 233.7252 15.30160499  5882
STARLINK-32383          
1 61891U 24204T   24362.91667824  .00029977  00000+0  10213-2 0  9999
2 61891  53.1601 356.0065 0001679 100.6382 250.2869 15.30163782  5879
STARLINK-32239          
1 61892U 24204U   24363.16667824 -.01530266  00000+0 -51561-1 0  9999
2 61892  53.1599 355.0122 0001564  90.0853 116.6710 15.33632262  8259
STARLINK-32489          
1 61893U 24204V   24362.29120702  .00001822  00000+0  55510-4 0  9991
2 61893  53.1621 359.2003 0001290  97.7585 262.3566 15.39628034  8113
2024-205A               
1 61894U 24205A   24363.10747917  .00022856  00000+0  12283-2 0  9995
2 61894  97.4723  74.4907 0011374  95.9088 264.3441 15.14843349  7102
2024-205B               
1 61895U 24205B   24363.17615058  .00018109  00000+0  94972-3 0  9995
2 61895  97.4705  74.5413 0015483 115.0971 245.1870 15.15710363  7086
2024-205C               
1 61896U 24205C   24363.11083376  .00024379  00000+0  13417-2 0  9992
2 61896  97.4709  74.4794 0012484  77.2864 282.9762 15.13969978  7074
2024-205D               
1 61897U 24205D   24363.10898727  .00014973  00000+0  81762-3 0  9994
2 61897  97.4700  74.4754 0016402 115.8326 244.4599 15.14305005  7075
2024-205E               
1 61898U 24205E   24363.10317179  .00024180  00000+0  12809-2 0  9998
2 61898  97.4709  74.4875 0012268 104.1279 256.1318 15.15332576  7076
2024-205F               
1 61899U 24205F   24363.09449382  .00026458  00000+0  13544-2 0  9996
2 61899  97.4687  74.4846 0013869 120.7732 239.4868 15.16504168  7079
2024-205G               
1 61900U 24205G   24363.09957034  .00024645  00000+0  12890-2 0  9996
2 61900  97.4725  74.5011 0013001 111.2368 249.0255 15.15771724  7078
2024-205H               
1 61901U 24205H   24363.16840900  .00017729  00000+0  92465-3 0  9990
2 61901  97.4688  74.5413 0014918 120.1565 240.1148 15.15918636  7088
2024-205J               
1 61902U 24205J   24363.09966675  .00024763  00000+0  13043-2 0  9991
2 61902  97.4735  74.5079 0012097 108.6486 251.6061 15.15532539  7073
2024-205K               
1 61903U 24205K   24363.10139435  .00022569  00000+0  11931-2 0  9996
2 61903  97.4702  74.4856 0017343 125.9743 234.3101 15.15354688  7077
2024-205L               
1 61904U 24205L   24363.09168016  .00026330  00000+0  13467-2 0  9998
2 61904  97.4727  74.5114 0014899 120.7289 239.5413 15.16522100  7074
2024-205M               
1 61905U 24205M   24363.17116147  .00012385  00000+0  65322-3 0  9999
2 61905  97.4734  74.5660 0015862 121.8018 238.4761 15.15589862  7084
2024-205N               
1 61906U 24205N   24363.15394786  .00022044  00000+0  11277-2 0  9997
2 61906  97.4726  74.5815 0015187 125.9298 234.3346 15.16549601  7085
